OBJECT_NAME,OBJECT_ID,EPOCH,MEAN_MOTION,ECCENTRICITY,INCLINATION,RA_OF_ASC_NODE,ARG_OF_PERICENTER,MEAN_ANOMALY,EPHEMERIS_TYPE,CLASSIFICATION_TYPE,NORAD_CAT_ID,ELEMENT_SET_NO,REV_AT_EPOCH,BSTAR,MEAN_MOTION_DOT,MEAN_MOTION_DDOT
ALOS-2,2014-029A,2026-06-30T12:43:53.090976,14.79475142,.00016106,97.9231,278.5031,88.0971,272.0425,0,U,39766,999,65355,.1481243E-3,.1055E-4,0
KAZEOSAT 2,2014-033A,2026-06-30T13:36:56.378016,14.85483689,.00070943,97.5395,20.4718,278.0322,82.0089,0,U,40010,999,65094,.57202087E-4,.444E-5,0
HODOYOSHI-4,2014-033B,2026-06-30T13:10:51.595392,14.88159681,.00219237,97.5449,5.7269,261.2254,98.6480,0,U,40011,999,65079,.16993105E-3,.152E-4,0
DEIMOS-2,2014-033D,2026-06-30T13:56:09.653856,14.93757011,.00008014,97.5813,55.5983,59.0867,301.0432,0,U,40013,999,63972,.79542957E-4,.788E-5,0
HODOYOSHI-3,2014-033F,2026-06-30T10:56:00.356352,14.85414117,.00316739,97.6429,343.9629,312.6929,47.1619,0,U,40015,999,64959,.11806827E-3,.973E-5,0
SPOT 7,2014-034A,2026-06-30T12:53:07.344384,14.60969989,.00014114,98.0628,243.6844,95.1149,265.0213,0,U,40053,999,63908,.11829763E-3,.534E-5,0
SKYSAT-B,2014-037D,2026-06-30T10:32:32.555616,14.88060267,.00044565,98.3844,141.1601,225.7255,134.3595,0,U,40072,999,64793,.15364039E-3,.1351E-4,0
WORLDVIEW-3 (WV-3),2014-048A,2026-06-30T12:12:21.483936,14.85043096,.00001174,97.8565,256.1575,162.9934,197.1284,0,U,40115,999,64388,.1058252E-3,.85E-5,0
GAOFEN-2,2014-049A,2026-06-30T13:18:45.279936,14.80915074,.00070402,98.0110,245.7490,178.8655,181.2575,0,U,40118,999,64121,.16002181E-3,.1184E-4,0
YAOGAN-21,2014-053A,2026-06-30T12:51:03.830400,15.26569082,.00094173,97.1464,221.1996,54.4808,305.7309,0,U,40143,999,65699,.34315075E-3,.892E-4,0
YAOGAN-22,2014-063A,2026-06-30T10:02:44.539584,13.15531339,.00066245,100.7741,332.9124,156.3389,203.8028,0,U,40275,999,56155,-.4153934E-4,-.62E-6,0
ASNARO,2014-070A,2026-06-30T12:39:17.557920,15.19632831,.00066735,97.3457,257.2814,126.3744,233.8107,0,U,40298,999,64603,.51552277E-3,.10933E-3,0
YAOGAN-24,2014-072A,2026-06-30T13:42:16.017408,14.76101911,.0013478,98.1504,319.0221,217.8128,142.2135,0,U,40310,999,62569,.11294448E-3,.727E-5,0
CBERS 4,2014-079A,2026-06-30T13:25:29.847936,14.35513341,.00014203,98.3530,237.9712,52.3721,307.7594,0,U,40336,999,60587,.12669268E-3,.322E-5,0
YAOGAN-26,2014-088A,2026-06-30T13:58:54.234624,15.47881740,.00042262,97.0637,181.4811,34.6427,325.5099,0,U,40362,999,63977,.33563747E-3,.17401E-3,0
SMAP,2015-003A,2026-06-30T13:11:58.660800,14.63378048,.00014524,98.1277,188.4552,96.9780,263.1588,0,U,40376,999,60957,.919396E-4,.428E-5,0
KOMPSAT-3A,2015-014A,2026-06-30T13:38:41.601984,15.54650223,.00571314,97.6884,173.9150,126.9187,233.7320,0,U,40536,999,62389,.3688876E-3,.26183E-3,0
SENTINEL-2A,2015-028A,2026-06-30T13:42:43.685280,14.30819291,.00012008,98.5689,256.2331,94.1295,266.0025,0,U,40697,999,57564,.9416683E-4,.203E-5,0
GAOFEN-8,2015-030A,2026-06-30T13:10:37.064640,15.46433723,.00096795,97.6894,15.7250,141.2170,218.9775,0,U,40701,999,61351,.40847189E-3,.20187E-3,0
CARBONITE 1 (CBNT-1),2015-032D,2026-06-30T14:29:48.263712,14.83628448,.00129229,97.6507,359.1088,248.9973,110.9860,0,U,40718,999,59133,.2204571E-3,.177E-4,0
YAOGAN-27,2015-040A,2026-06-30T13:26:47.033376,13.16070646,.0008044,100.1151,167.3626,178.3624,181.7518,0,U,40878,999,51942,.51359332E-3,.153E-5,0
GAOFEN-9 01,2015-047A,2026-06-30T13:23:33.410112,14.82909489,.00288761,97.6269,216.6450,96.0534,264.3972,0,U,40894,999,58217,.13563429E-3,.1057E-4,0
YAOGAN-28,2015-064A,2026-06-30T13:19:57.897408,15.27587110,.00116856,97.3093,319.5464,138.6334,221.5793,0,U,41026,999,59272,.26660272E-3,.7133E-4,0
YAOGAN-29,2015-069A,2026-06-30T12:52:28.949952,14.83095720,.0001923,98.0022,210.1900,32.9533,327.1800,0,U,41038,999,57260,.23504075E-4,.137E-5,0
KENT RIDGE 1,2015-077B,2026-06-29T14:31:52.500864,15.23202634,.00081621,14.9780,173.6262,54.0639,306.0440,0,U,41167,999,58299,.12846013E-3,.3897E-4,0
GAOFEN-4,2015-083A,2026-06-30T12:52:05.253024,1.00269257,.00042141,0.3913,83.8540,111.7129,21.7442,0,U,41194,999,3866,0,-.324E-5,0
JASON-3,2016-002A,2026-06-30T10:33:05.416128,12.87623164,.00083508,66.0416,97.9745,272.0756,87.9306,0,U,41240,999,48895,.56074459E-4,-.48E-6,0
SENTINEL-3A,2016-011A,2026-06-30T12:59:23.790912,14.26736236,.00014286,98.6245,248.7328,95.4943,264.6400,0,U,41335,999,53996,.6611564E-4,.116E-5,0
ZIYUAN 3-02 (ZY 3-02),2016-033A,2026-06-30T14:35:51.406368,15.21303987,.00127302,97.3836,257.1243,238.6293,121.3698,0,U,41556,999,56002,.22600635E-3,.4997E-4,0
CARTOSAT-2C,2016-040A,2026-06-30T13:30:20.183904,15.19299653,.00104586,97.4483,241.3567,91.3022,268.9410,0,U,41599,999,55574,.34224511E-3,.7167E-4,0
