ALOS-2                  
1 39766U 14029A   26181.53047559  .00001055  00000+0  14812-3 0  9992
2 39766  97.9231 278.5031 0001610  88.0971 272.0425 14.79475142653551
KAZEOSAT 2              
1 40010U 14033A   26181.56731919  .00000444  00000+0  57202-4 0  9996
2 40010  97.5395  20.4718 0007094 278.0322  82.0089 14.85483689650948
HODOYOSHI-4             
1 40011U 14033B   26181.54920828  .00001520  00000+0  16993-3 0  9991
2 40011  97.5449   5.7269 0021923 261.2254  98.6480 14.88159681650797
DEIMOS-2                
1 40013U 14033D   26181.58066729  .00000788  00000+0  79543-4 0  9994
2 40013  97.5813  55.5983 0000801  59.0867 301.0432 14.93757011639720
HODOYOSHI-3             
1 40015U 14033F   26181.45555968  .00000973  00000+0  11807-3 0  9994
2 40015  97.6429 343.9629 0031673 312.6929  47.1619 14.85414117649594
SPOT 7                  
1 40053U 14034A   26181.53689056  .00000534  00000+0  11830-3 0  9991
2 40053  98.0628 243.6844 0001411  95.1149 265.0213 14.60969989639080
SKYSAT-B                
1 40072U 14037D   26181.43926569  .00001351  00000+0  15364-3 0  9991
2 40072  98.3844 141.1601 0004456 225.7255 134.3595 14.88060267647933
WORLDVIEW-3 (WV-3)      
1 40115U 14048A   26181.50858199  .00000850  00000+0  10583-3 0  9993
2 40115  97.8565 256.1575 0000117 162.9934 197.1284 14.85043096643888
GAOFEN-2                
1 40118U 14049A   26181.55469074  .00001184  00000+0  16002-3 0  9995
2 40118  98.0110 245.7490 0007040 178.8655 181.2575 14.80915074641219
YAOGAN-21               
1 40143U 14053A   26181.53546100  .00008920  00000+0  34315-3 0  9994
2 40143  97.1464 221.1996 0009417  54.4808 305.7309 15.26569082656991
YAOGAN-22               
1 40275U 14063A   26181.41857106 -.00000062  00000+0 -41539-4 0  9997
2 40275 100.7741 332.9124 0006624 156.3389 203.8028 13.15531339561556
ASNARO                  
1 40298U 14070A   26181.52728655  .00010933  00000+0  51552-3 0  9999
2 40298  97.3457 257.2814 0006673 126.3744 233.8107 15.19632831646030
YAOGAN-24               
1 40310U 14072A   26181.57101872  .00000727  00000+0  11294-3 0  9996
2 40310  98.1504 319.0221 0013478 217.8128 142.2135 14.76101911625694
CBERS 4                 
1 40336U 14079A   26181.55937324  .00000322  00000+0  12669-3 0  9996
2 40336  98.3530 237.9712 0001420  52.3721 307.7594 14.35513341605875
YAOGAN-26               
1 40362U 14088A   26181.58257216  .00017401  00000+0  33564-3 0  9996
2 40362  97.0637 181.4811 0004226  34.6427 325.5099 15.47881740639773
SMAP                    
1 40376U 15003A   26181.54998450  .00000428  00000+0  91940-4 0  9991
2 40376  98.1277 188.4552 0001452  96.9780 263.1588 14.63378048609574
KOMPSAT-3A              
1 40536U 15014A   26181.56853706  .00026183  00000+0  36889-3 0  9993
2 40536  97.6884 173.9150 0057131 126.9187 233.7320 15.54650223623890
SENTINEL-2A             
1 40697U 15028A   26181.57133895  .00000203  00000+0  94167-4 0  9996
2 40697  98.5689 256.2331 0001200  94.1295 266.0025 14.30819291575644
GAOFEN-8                
1 40701U 15030A   26181.54904010  .00020187  00000+0  40847-3 0  9995
2 40701  97.6894  15.7250 0009679 141.2170 218.9775 15.46433723613517
CARBONITE 1 (CBNT-1)    
1 40718U 15032D   26181.60403083  .00001770  00000+0  22046-3 0  9994
2 40718  97.6507 359.1088 0012922 248.9973 110.9860 14.83628448591332
YAOGAN-27               
1 40878U 15040A   26181.56026659  .00000153  00000+0  51359-3 0  9998
2 40878 100.1151 167.3626 0008044 178.3624 181.7518 13.16070646519422
GAOFEN-9 01             
1 40894U 15047A   26181.55802558  .00001057  00000+0  13563-3 0  9991
2 40894  97.6269 216.6450 0028876  96.0534 264.3972 14.82909489582178
YAOGAN-28               
1 41026U 15064A   26181.55553122  .00007133  00000+0  26660-3 0  9991
2 41026  97.3093 319.5464 0011685 138.6334 221.5793 15.27587110592728
YAOGAN-29               
1 41038U 15069A   26181.53644618  .00000137  00000+0  23504-4 0  9990
2 41038  98.0022 210.1900 0001923  32.9533 327.1800 14.83095720572602
KENT RIDGE 1            
1 41167U 15077B   26180.60546876  .00003897  00000+0  12846-3 0  9998
2 41167  14.9780 173.6262 0008162  54.0639 306.0440 15.23202634582999
GAOFEN-4                
1 41194U 15083A   26181.53617191 -.00000324  00000+0  00000+0 0  9995
2 41194   0.3913  83.8540 0004214 111.7129  21.7442  1.00269257 38663
JASON-3                 
1 41240U 16002A   26181.43964602 -.00000048  00000+0  56074-4 0  9990
2 41240  66.0416  97.9745 0008350 272.0756  87.9306 12.87623164488959
SENTINEL-3A             
1 41335U 16011A   26181.54124758  .00000116  00000+0  66116-4 0  9990
2 41335  98.6245 248.7328 0001428  95.4943 264.6400 14.26736236539969
ZIYUAN 3-02 (ZY 3-02)   
1 41556U 16033A   26181.60823387  .00004997  00000+0  22601-3 0  9991
2 41556  97.3836 257.1243 0012730 238.6293 121.3698 15.21303987560021
CARTOSAT-2C             
1 41599U 16040A   26181.56273361  .00007167  00000+0  34225-3 0  9999
2 41599  97.4483 241.3567 0010458  91.3022 268.9410 15.19299653555744
